{
  "type": "FeatureCollection",
  "features": [
    {
      "type": "Feature",
      "properties": {
        "norad_id": 22490,
        "name": "SCD 1",
        "group": "resource",
        "lat": -24.892106346106374,
        "lon": 129.9766897256767,
        "alt_km": 767.3326123483084,
        "timestamp": "2025-12-22T22:44:20.607070+00:00",
        "meta_object_name": "SCD 1",
        "meta_object_id": "1993-009B",
        "meta_epoch": "2025-12-21T17:33:16.575840",
        "meta_mean_motion": 14.46004662,
        "meta_eccentricity": 0.00421475,
        "meta_inclination": 24.9681,
        "meta_ra_of_asc_node": 223.1799,
        "meta_arg_of_pericenter": 60.1108,
        "meta_mean_anomaly": 350.9705,
        "meta_ephemeris_type": 0,
        "meta_classification_type": "U",
        "meta_norad_cat_id": 22490,
        "meta_element_set_no": 999,
        "meta_rev_at_epoch": 73540,
        "meta_bstar": 6.8233163e-05,
        "meta_mean_motion_dot": 4.34e-06,
        "meta_mean_motion_ddot": 0,
        "tle_line1": "1 22490U 93009B   25355.73144185  .00000434  00000+0  68233-4 0  9997",
        "tle_line2": "2 22490  24.9681 223.1799 0042147  60.1108 350.9705 14.46004662735407"
      },
      "geometry": {
        "type": "Point",
        "coordinates": [
          129.9766897256767,
          -24.892106346106374
        ]
      }
    },
    {
      "type": "Feature",
      "properties": {
        "norad_id": 25397,
        "name": "TECHSAT 1B (GO-32)",
        "group": "resource",
        "lat": -74.67445378373205,
        "lon": 15.69585459913412,
        "alt_km": 818.4582828310231,
        "timestamp": "2025-12-22T22:44:20.607101+00:00",
        "meta_object_name": "TECHSAT 1B (GO-32)",
        "meta_object_id": "1998-043D",
        "meta_epoch": "2025-12-22T12:59:14.117568",
        "meta_mean_motion": 14.24379637,
        "meta_eccentricity": 0.00017553,
        "meta_inclination": 98.9931,
        "meta_ra_of_asc_node": 339.9798,
        "meta_arg_of_pericenter": 41.7651,
        "meta_mean_anomaly": 318.366,
        "meta_ephemeris_type": 0,
        "meta_classification_type": "U",
        "meta_norad_cat_id": 25397,
        "meta_element_set_no": 999,
        "meta_rev_at_epoch": 42618,
        "meta_bstar": 4.873293e-05,
        "meta_mean_motion_dot": 6.6e-07,
        "meta_mean_motion_ddot": 0,
        "tle_line1": "1 25397U 98043D   25356.54113562  .00000066  00000+0  48733-4 0  9998",
        "tle_line2": "2 25397  98.9931 339.9798 0001755  41.7651 318.3660 14.24379637426181"
      },
      "geometry": {
        "type": "Point",
        "coordinates": [
          15.69585459913412,
          -74.67445378373205
        ]
      }
    },
    {
      "type": "Feature",
      "properties": {
        "norad_id": 25504,
        "name": "SCD 2",
        "group": "resource",
        "lat": -24.115243726624907,
        "lon": 5.047844005422915,
        "alt_km": 749.9774822978761,
        "timestamp": "2025-12-22T22:44:20.607117+00:00",
        "meta_object_name": "SCD 2",
        "meta_object_id": "1998-060A",
        "meta_epoch": "2025-12-22T13:43:51.661344",
        "meta_mean_motion": 14.45428389,
        "meta_eccentricity": 0.00170381,
        "meta_inclination": 24.995,
        "meta_ra_of_asc_node": 81.268,
        "meta_arg_of_pericenter": 57.3141,
        "meta_mean_anomaly": 70.4523,
        "meta_ephemeris_type": 0,
        "meta_classification_type": "U",
        "meta_norad_cat_id": 25504,
        "meta_element_set_no": 999,
        "meta_rev_at_epoch": 43474,
        "meta_bstar": 6.2921219e-05,
        "meta_mean_motion_dot": 4.07e-06,
        "meta_mean_motion_ddot": 0,
        "tle_line1": "1 25504U 98060A   25356.57212571  .00000407  00000+0  62921-4 0  9994",
        "tle_line2": "2 25504  24.9950  81.2680 0017038  57.3141  70.4523 14.45428389434743"
      },
      "geometry": {
        "type": "Point",
        "coordinates": [
          5.047844005422915,
          -24.115243726624907
        ]
      }
    },
    {
      "type": "Feature",
      "properties": {
        "norad_id": 25757,
        "name": "DLR-TUBSAT",
        "group": "resource",
        "lat": 80.9063214977543,
        "lon": -90.36260502618507,
        "alt_km": 707.7568576922058,
        "timestamp": "2025-12-22T22:44:20.607131+00:00",
        "meta_object_name": "DLR-TUBSAT",
        "meta_object_id": "1999-029B",
        "meta_epoch": "2025-12-17T13:22:10.787520",
        "meta_mean_motion": 14.52359578,
        "meta_eccentricity": 0.00141996,
        "meta_inclination": 98.6566,
        "meta_ra_of_asc_node": 336.2196,
        "meta_arg_of_pericenter": 177.8976,
        "meta_mean_anomaly": 182.2281,
        "meta_ephemeris_type": 0,
        "meta_classification_type": "U",
        "meta_norad_cat_id": 25757,
        "meta_element_set_no": 999,
        "meta_rev_at_epoch": 40688,
        "meta_bstar": 3.7650132e-05,
        "meta_mean_motion_dot": 1.05e-06,
        "meta_mean_motion_ddot": 0,
        "tle_line1": "1 25757U 99029B   25351.55706930  .00000105  00000+0  37650-4 0  9996",
        "tle_line2": "2 25757  98.6566 336.2196 0014199 177.8976 182.2281 14.52359578406886"
      },
      "geometry": {
        "type": "Point",
        "coordinates": [
          -90.36260502618507,
          80.9063214977543
        ]
      }
    },
    {
      "type": "Feature",
      "properties": {
        "norad_id": 25994,
        "name": "TERRA",
        "group": "resource",
        "lat": 74.16477345957857,
        "lon": -102.12929453755144,
        "alt_km": 681.0128261929331,
        "timestamp": "2025-12-22T22:44:20.607142+00:00",
        "meta_object_name": "TERRA",
        "meta_object_id": "1999-068A",
        "meta_epoch": "2025-12-22T11:19:30.972000",
        "meta_mean_motion": 14.60912496,
        "meta_eccentricity": 0.00034885,
        "meta_inclination": 97.9734,
        "meta_ra_of_asc_node": 47.7986,
        "meta_arg_of_pericenter": 74.9853,
        "meta_mean_anomaly": 49.0039,
        "meta_ephemeris_type": 0,
        "meta_classification_type": "U",
        "meta_norad_cat_id": 25994,
        "meta_element_set_no": 999,
        "meta_rev_at_epoch": 38380,
        "meta_bstar": 0.00010679537,
        "meta_mean_motion_dot": 4.78e-06,
        "meta_mean_motion_ddot": 0,
        "tle_line1": "1 25994U 99068A   25356.47188625  .00000478  00000+0  10680-3 0  9999",
        "tle_line2": "2 25994  97.9734  47.7986 0003488  74.9853  49.0039 14.60912496383809"
      },
      "geometry": {
        "type": "Point",
        "coordinates": [
          -102.12929453755144,
          74.16477345957857
        ]
      }
    },
    {
      "type": "Feature",
      "properties": {
        "norad_id": 27004,
        "name": "MAROC-TUBSAT",
        "group": "resource",
        "lat": 6.954740297055429,
        "lon": 164.3640416254138,
        "alt_km": 1010.3715777408906,
        "timestamp": "2025-12-22T22:44:20.607154+00:00",
        "meta_object_name": "MAROC-TUBSAT",
        "meta_object_id": "2001-056D",
        "meta_epoch": "2025-12-22T08:59:06.016416",
        "meta_mean_motion": 13.70253386,
        "meta_eccentricity": 0.00192156,
        "meta_inclination": 99.7916,
        "meta_ra_of_asc_node": 164.9882,
        "meta_arg_of_pericenter": 234.5504,
        "meta_mean_anomaly": 186.9487,
        "meta_ephemeris_type": 0,
        "meta_classification_type": "U",
        "meta_norad_cat_id": 27004,
        "meta_element_set_no": 999,
        "meta_rev_at_epoch": 20197,
        "meta_bstar": 2.5339706e-05,
        "meta_mean_motion_dot": -2.4e-07,
        "meta_mean_motion_ddot": 0,
        "tle_line1": "1 27004U 01056D   25356.37437519 -.00000024  00000+0  25340-4 0  9999",
        "tle_line2": "2 27004  99.7916 164.9882 0019215 234.5504 186.9487 13.70253386201975"
      },
      "geometry": {
        "type": "Point",
        "coordinates": [
          164.3640416254138,
          6.954740297055429
        ]
      }
    },
    {
      "type": "Feature",
      "properties": {
        "norad_id": 27424,
        "name": "AQUA",
        "group": "resource",
        "lat": 12.296798373164206,
        "lon": -43.853837458856475,
        "alt_km": 688.6248729937824,
        "timestamp": "2025-12-22T22:44:20.607166+00:00",
        "meta_object_name": "AQUA",
        "meta_object_id": "2002-022A",
        "meta_epoch": "2025-12-21T22:23:22.229952",
        "meta_mean_motion": 14.61820667,
        "meta_eccentricity": 0.0001439,
        "meta_inclination": 98.405,
        "meta_ra_of_asc_node": 316.9619,
        "meta_arg_of_pericenter": 110.3776,
        "meta_mean_anomaly": 326.1362,
        "meta_ephemeris_type": 0,
        "meta_classification_type": "U",
        "meta_norad_cat_id": 27424,
        "meta_element_set_no": 999,
        "meta_rev_at_epoch": 25737,
        "meta_bstar": 0.00018434,
        "meta_mean_motion_dot": 8.71e-06,
        "meta_mean_motion_ddot": 0,
        "tle_line1": "1 27424U 02022A   25355.93289618  .00000871  00000+0  18434-3 0  9999",
        "tle_line2": "2 27424  98.4050 316.9619 0001439 110.3776 326.1362 14.61820667257372"
      },
      "geometry": {
        "type": "Point",
        "coordinates": [
          -43.853837458856475,
          12.296798373164206
        ]
      }
    }
  ]
}